[{"OBJECT_NAME":"ICEYE-X31","OBJECT_ID":"2023-174AJ","EPOCH":"2026-03-09T23:06:20.433600","MEAN_MOTION":15.30950809,"ECCENTRICITY":0.00015021,"INCLINATION":97.3851,"RA_OF_ASC_NODE":144.9524,"ARG_OF_PERICENTER":332.6589,"MEAN_ANOMALY":27.4572,"EPHEMERIS_TYPE":0,"CLASSIFICATION_TYPE":"U","NORAD_CAT_ID":58288,"ELEMENT_SET_NO":999,"REV_AT_EPOCH":12955,"BSTAR":0.00066288467,"MEAN_MOTION_DOT":0.00019777,"MEAN_MOTION_DDOT":0},{"OBJECT_NAME":"STARLINK-33589","OBJECT_ID":"2025-015B","EPOCH":"2026-03-09T22:12:35.273664","MEAN_MOTION":15.30213238,"ECCENTRICITY":0.0001719,"INCLINATION":53.1574,"RA_OF_ASC_NODE":321.6212,"ARG_OF_PERICENTER":134.9541,"MEAN_ANOMALY":225.1599,"EPHEMERIS_TYPE":0,"CLASSIFICATION_TYPE":"U","NORAD_CAT_ID":62759,"ELEMENT_SET_NO":999,"REV_AT_EPOCH":6375,"BSTAR":0.00086930504,"MEAN_MOTION_DOT":0.00025486,"MEAN_MOTION_DDOT":0}]
